     2.100          NAVIGATION                              RINEX VERSION / TYPE
fic2rin                                 03/05/2018 00:06:41 PGM / RUN BY / DATE
                                                            END OF HEADER
22 18  3  4 14  0  0.0 -.311553943902D-03 -.129602995003D-10  .000000000000D+00
     .124000000000D+03 -.970937500000D+02  .550701510357D-08  .241332719631D+01
    -.507943332195D-05  .734412088059D-02  .850483775139D-05  .515357773781D+04
     .504000000000D+05  .135973095894D-06 -.256857089254D+00 -.428408384323D-07
     .925144660789D+00  .198250000000D+03 -.160093830260D+01 -.846499545818D-08
    -.472876840076D-09  .100000000000D+01  .199100000000D+04  .000000000000D+00
     .240000000000D+01  .000000000000D+00 -.176951289177D-07  .124000000000D+03
     .432060000000D+05  .400000000000D+01
23 18  3  4 14  0  0.0 -.218750908971D-03  .113686837722D-12  .000000000000D+00
     .620000000000D+02  .521250000000D+02  .486984570576D-08  .173326863334D+01
     .277161598206D-05  .120496279560D-01  .125914812088D-04  .515359616661D+04
     .504000000000D+05 -.294297933578D-06  .832607473398D+00  .502914190292D-07
     .943829223121D+00  .132406250000D+03 -.239078566509D+01 -.827534470132D-08
     .298583865788D-09  .100000000000D+01  .199100000000D+04  .000000000000D+00
     .240000000000D+01  .000000000000D+00 -.200234353542D-07  .620000000000D+02
     .432060000000D+05  .400000000000D+01
24 18  3  4 14  0  0.0 -.468203797936D-04 -.454747350886D-12  .000000000000D+00
     .430000000000D+02  .345625000000D+02  .546201322906D-08  .113238379370D+01
     .198557972908D-05  .686222314835D-02  .341236591339D-05  .515365274620D+04
     .504000000000D+05  .931322574615D-08  .185354468588D+01  .122934579849D-06
     .942042072656D+00  .302562500000D+03  .532745020866D+00 -.881643866863D-08
    -.321441960776D-10  .100000000000D+01  .199100000000D+04  .000000000000D+00
     .240000000000D+01  .000000000000D+00  .279396772385D-08  .430000000000D+02
     .432060000000D+05  .400000000000D+01
25 18  3  4 14  0  0.0 -.548108015209D-03 -.602540239925D-11  .000000000000D+00
     .800000000000D+02 -.674375000000D+02  .418946022212D-08 -.836927072572D+00
    -.357627868652D-05  .728498236276D-02  .917539000511D-05  .515367794418D+04
     .504000000000D+05  .502914190292D-07  .294377839966D+01  .184401869774D-06
     .975258258164D+00  .208812500000D+03  .819210101812D+00 -.800961934708D-08
    -.555023118941D-09  .100000000000D+01  .199100000000D+04  .000000000000D+00
     .240000000000D+01  .000000000000D+00  .558793544769D-08  .800000000000D+02
     .432060000000D+05  .400000000000D+01
26 18  3  4 14  0  0.0 -.229746103287D-03  .134150468512D-10  .000000000000D+00
     .800000000000D+01 -.781562500000D+02  .451661670664D-08 -.135312773344D+01
    -.408105552197D-05  .272845837753D-02  .921823084354D-05  .515361955452D+04
     .504000000000D+05 -.167638063431D-07  .292335081140D+01 -.242143869400D-07
     .956828207004D+00  .200343750000D+03  .494667096299D-01 -.813141013444D-08
    -.535022285826D-09  .100000000000D+01  .199100000000D+04  .000000000000D+00
     .240000000000D+01  .000000000000D+00  .745058059692D-08  .800000000000D+01
     .432060000000D+05  .400000000000D+01
27 18  3  4 14  0  0.0  .368792098016D-03  .909494701773D-12  .000000000000D+00
     .760000000000D+02  .630625000000D+02  .382444501777D-08  .313115342817D+01
     .330805778503D-05  .560597062577D-02  .123232603073D-04  .515368536758D+04
     .504000000000D+05 -.372529029846D-08 -.230035916274D+01 -.223517417908D-07
     .976950711016D+00  .151000000000D+03  .359805258968D+00 -.770103506474D-08
     .455733268834D-09  .100000000000D+01  .199100000000D+04  .000000000000D+00
     .340000000000D+01  .000000000000D+00  .186264514923D-08  .760000000000D+02
     .432060000000D+05  .400000000000D+01
28 18  3  4 14  0  0.0  .694014132023D-03  .341060513165D-11  .000000000000D+00
     .720000000000D+02 -.695625000000D+02  .367872466222D-08 -.233258704029D+01
    -.354833900928D-05  .196417020634D-01  .100340694189D-04  .515367564774D+04
     .504000000000D+05  .318512320518D-06  .302564741934D+01  .279396772385D-07
     .986894343676D+00  .196812500000D+03 -.152511421696D+01 -.738673625864D-08
    -.506092509356D-09  .100000000000D+01  .199100000000D+04  .000000000000D+00
     .485000000000D+01  .000000000000D+00 -.111758708954D-07  .720000000000D+02
     .432060000000D+05  .400000000000D+01
29 18  3  4 14  0  0.0  .487536191940D-03 -.579802872380D-11  .000000000000D+00
     .780000000000D+02  .647187500000D+02  .383444543433D-08 -.184017134858D+01
     .335089862347D-05  .549775082618D-03  .107251107693D-04  .515372999001D+04
     .504000000000D+05 -.260770320892D-07 -.223630179826D+01 -.726431608200D-07
     .983373322223D+00  .185843750000D+03  .776207547337D+00 -.769389191005D-08
     .362872257943D-09  .100000000000D+01  .199100000000D+04  .000000000000D+00
     .240000000000D+01  .000000000000D+00 -.102445483208D-07  .780000000000D+02
     .432060000000D+05  .400000000000D+01
31 18  3  4 14  0  0.0  .137749128044D-03 -.261479726760D-11  .000000000000D+00
     .530000000000D+02  .168437500000D+02  .501270879944D-08  .119115178768D-03
     .789761543274D-06  .881582556758D-02  .320002436638D-05  .515361023140D+04
     .504000000000D+05  .117346644402D-06  .192402239551D+01 -.670552253723D-07
     .963673225567D+00  .318500000000D+03 -.145948706824D+00 -.864928884903D-08
    -.175007289756D-10  .100000000000D+01  .199100000000D+04  .000000000000D+00
     .240000000000D+01  .000000000000D+00 -.135041773319D-07  .530000000000D+02
     .432060000000D+05  .400000000000D+01
32 18  3  4 14  0  0.0 -.530149787664D-03  .170530256582D-11  .000000000000D+00
     .670000000000D+02  .623125000000D+02  .447982946002D-08 -.241808661302D+01
     .325962901115D-05  .175628229044D-02  .119060277939D-04  .515364787102D+04
     .504000000000D+05  .372529029846D-08  .838015717690D+00 -.204890966415D-07
     .957397206065D+00  .147250000000D+03 -.267300086368D+01 -.798461830569D-08
     .312870175156D-09  .100000000000D+01  .199100000000D+04  .000000000000D+00
     .240000000000D+01  .000000000000D+00  .465661287308D-09  .670000000000D+02
     .432060000000D+05  .400000000000D+01
17 18  3  4 13 59 44.0 -.118506606668D-03  .306954461848D-11  .000000000000D+00
     .300000000000D+01  .517812500000D+02  .370229707268D-08  .295254561504D+01
     .272691249847D-05  .123358197743D-01  .110045075417D-04  .515377335358D+04
     .503840000000D+05  .121071934700D-06 -.224678875284D+01 -.931322574615D-07
     .982140120318D+00  .175218750000D+03 -.178622908686D+01 -.745531054361D-08
     .408945605655D-09  .100000000000D+01  .199100000000D+04  .000000000000D+00
     .240000000000D+01  .000000000000D+00 -.111758708954D-07  .300000000000D+01
     .435360000000D+05  .400000000000D+01
27 18  3  4 13 59 44.0  .368791632354D-03  .909494701773D-12  .000000000000D+00
     .580000000000D+02  .630625000000D+02  .382408786004D-08  .312881922973D+01
     .330805778503D-05  .560596585274D-02  .123232603073D-04  .515368536377D+04
     .503840000000D+05 -.186264514923D-08 -.230035901205D+01 -.223517417908D-07
     .976950706627D+00  .151000000000D+03  .359805713935D+00 -.770103506474D-08
     .455376111100D-09  .100000000000D+01  .199100000000D+04  .000000000000D+00
     .240000000000D+01  .000000000000D+00  .186264514923D-08  .580000000000D+02
     .436260000000D+05  .400000000000D+01
17 18  3  4 15 59 44.0 -.118484720588D-03  .306954461848D-11  .000000000000D+00
     .400000000000D+01  .540625000000D+02  .371551190884D-08 -.228051370908D+01
     .279210507870D-05  .123343854211D-01  .117197632790D-04  .515377596474D+04
     .575840000000D+05  .201165676117D-06 -.224684247997D+01 -.558793544769D-07
     .982143154410D+00  .164218750000D+03 -.178624215364D+01 -.747995442727D-08
     .410731394325D-09  .100000000000D+01  .199100000000D+04  .000000000000D+00
     .240000000000D+01  .000000000000D+00 -.111758708954D-07  .400000000000D+01
     .504060000000D+05  .400000000000D+01
 1 18  3  4 16  0  0.0 -.321664847434D-04 -.227373675443D-11  .000000000000D+00
     .140000000000D+02  .198125000000D+02  .476555564738D-08  .194243173028D+01
     .100210309029D-05  .740589841735D-02  .338256359100D-05  .515366684341D+04
     .576000000000D+05 -.158324837685D-06 -.124340850592D+01 -.186264514923D-08
     .970037590691D+00  .318093750000D+03  .611528403996D+00 -.845392356842D-08
     .221437795202D-09  .100000000000D+01  .199100000000D+04  .000000000000D+00
     .240000000000D+01  .000000000000D+00  .558793544769D-08  .140000000000D+02
     .504060000000D+05  .400000000000D+01
 2 18  3  4 16  0  0.0  .183763913810D-03 -.108002495836D-10  .000000000000D+00
     .470000000000D+02  .253437500000D+02  .498342186524D-08  .231377273468D+01
     .112690031528D-05  .178456049180D-01  .347942113876D-05  .515368695259D+04
     .576000000000D+05  .132247805595D-06 -.130278447841D+01 -.264495611191D-06
     .949061406686D+00  .302312500000D+03 -.188531874430D+01 -.828355932921D-08
     .273225666660D-09  .100000000000D+01  .199100000000D+04  .000000000000D+00
     .240000000000D+01  .000000000000D+00 -.204890966415D-07  .470000000000D+02
     .504060000000D+05  .400000000000D+01
 3 18  3  4 16  0  0.0  .215149484575D-04  .807176547823D-11  .000000000000D+00
     .490000000000D+02 -.805937500000D+02  .458233372974D-08  .108047834989D+01
    -.443309545517D-05  .121655466501D-02  .950321555138D-05  .515355006027D+04
     .576000000000D+05  .745058059692D-07 -.200512938409D+00  .428408384323D-07
     .961166282834D+00  .196312500000D+03  .444475054330D+00 -.816498296146D-08
    -.421803284086D-09  .100000000000D+01  .199100000000D+04  .000000000000D+00
     .240000000000D+01  .000000000000D+00  .232830643654D-08  .490000000000D+02
     .504060000000D+05  .400000000000D+01
